ONEWEB-0144             
1 47290U 20100AJ  25051.62409063  .00000372  00000+0  99922-3 0  9993
2 47290  87.8812  86.5104 0002001  85.4319 274.7038 13.12441991201408
ONEWEB-0145             
1 47291U 20100AK  25051.59489572 -.00000152  00000+0 -45910-3 0  9999
2 47291  87.8812  86.5414 0001988  92.5193 267.6163 13.12443571201591
ONEWEB-0146             
1 47292U 20100AL  25051.51540988 -.00000218  00000+0 -64097-3 0  9991
2 47292  87.8815  86.5427 0001924 107.3942 252.7397 13.12442539201492
ONEWEB-0147             
1 47293U 20100AM  25051.63382254  .00000120  00000+0  29846-3 0  9998
2 47293  87.8809  86.5033 0002202  93.9222 266.2158 13.12440510201403
ONEWEB-0115             
1 48042U 21025A   25051.96153650 -.00000234  00000+0 -67540-3 0  9991
2 48042  87.8879  55.8834 0001862  91.5904 268.5438 13.13469493190420
ONEWEB-0152             
1 48043U 21025B   25051.89806044  .00000128  00000+0  31467-3 0  9995
2 48043  87.8885  55.9039 0001948  91.5346 268.6007 13.13470381190376
ONEWEB-0153             
1 48044U 21025C   25051.95202008 -.00000196  00000+0 -57041-3 0  9996
2 48044  87.8887  55.8873 0001859  87.3612 272.7730 13.13468095190372
ONEWEB-0154             
1 48045U 21025D   25051.94883058 -.00000190  00000+0 -55555-3 0  9998
2 48045  87.8884  55.8915 0001915  90.6566 269.4782 13.13471481190334
